start=new Date('2022-08-28T00:00:00.000Z').valueOf();
sats=[{"COUNTRY_CODE":"US","MEAN_MOTION_DDOT":"0.0000000000000","PERIOD":"95.436","ARG_OF_PERICENTER":"50.0800","OBJECT_ID":"2022-016AP","INCLINATION":"53.2182","REF_FRAME":"TEME","PERIAPSIS":"538.530","MEAN_ANOMALY":"120.8868","CENTER_NAME":"EARTH","BSTAR":"-0.00172510000000","OBJECT_NAME":"STARLINK-3506","TLE_LINE1":"1 51751U 22016AP  22239.91667824 -.00027654  00000-0 -17251-2 0  9995","TLE_LINE2":"2 51751  53.2182 339.1442 0001663  50.0800 120.8868 15.08861204  1309","EPOCH":"2022-08-27T22:00:00.999936","NORAD_CAT_ID":"51751","FILE":"3548882","REV_AT_EPOCH":"130","EPHEMERIS_TYPE":"0","LAUNCH_DATE":"2022-02-21","ELEMENT_SET_NO":"999","MEAN_ELEMENT_THEORY":"SGP4","SEMIMAJOR_AXIS":"6917.816","SITE":"AFETR","TIME_SYSTEM":"UTC","CLASSIFICATION_TYPE":"U","GP_ID":"211136939","OBJECT_TYPE":"PAYLOAD","RCS_SIZE":"LARGE","APOAPSIS":"540.831","MEAN_MOTION_DOT":"-0.00027654","DECAY_DATE":null,"ECCENTRICITY":"0.00016630","RA_OF_ASC_NODE":"339.1442","MEAN_MOTION":"15.08861204"},{"LAUNCH_DATE":"2022-02-21","ELEMENT_SET_NO":"999","NORAD_CAT_ID":"51752","REV_AT_EPOCH":"130","FILE":"3548882","EPHEMERIS_TYPE":"0","SITE":"AFETR","SEMIMAJOR_AXIS":"6917.777","TIME_SYSTEM":"UTC","MEAN_ELEMENT_THEORY":"SGP4","TLE_LINE2":"2 51752  53.2167 339.1487 0001594  52.0716 198.7285 15.08873981  1305","EPOCH":"2022-08-27T22:00:00.999936","RA_OF_ASC_NODE":"339.1487","ECCENTRICITY":"0.00015940","MEAN_MOTION":"15.08873981","RCS_SIZE":"MEDIUM","OBJECT_TYPE":"PAYLOAD","CLASSIFICATION_TYPE":"U","GP_ID":"211137189","DECAY_DATE":null,"MEAN_MOTION_DOT":"-0.00032408","APOAPSIS":"540.744","REF_FRAME":"TEME","INCLINATION":"53.2167","MEAN_ANOMALY":"198.7285","PERIAPSIS":"538.539","PERIOD":"95.435","OBJECT_ID":"2022-016AQ","ARG_OF_PERICENTER":"52.0716","COUNTRY_CODE":"US","MEAN_MOTION_DDOT":"0.0000000000000","BSTAR":"-0.00202540000000","OBJECT_NAME":"STARLINK-3511","TLE_LINE1":"1 51752U 22016AQ  22239.91667824 -.00032408  00000-0 -20254-2 0  9996","CENTER_NAME":"EARTH"},{"INCLINATION":"53.2178","REF_FRAME":"TEME","MEAN_ANOMALY":"161.9075","PERIAPSIS":"538.699","COUNTRY_CODE":"US","MEAN_MOTION_DDOT":"0.0000000000000","OBJECT_ID":"2022-016AR","PERIOD":"95.437","ARG_OF_PERICENTER":"49.0858","BSTAR":"-0.00188870000000","OBJECT_NAME":"STARLINK-3507","TLE_LINE1":"1 51753U 22016AR  22239.91667824 -.00030227  00000-0 -18887-2 0  9993","CENTER_NAME":"EARTH","NORAD_CAT_ID":"51753","FILE":"3548882","REV_AT_EPOCH":"130","EPHEMERIS_TYPE":"0","LAUNCH_DATE":"2022-02-21","ELEMENT_SET_NO":"999","MEAN_ELEMENT_THEORY":"SGP4","SITE":"AFETR","SEMIMAJOR_AXIS":"6917.857","TIME_SYSTEM":"UTC","TLE_LINE2":"2 51753  53.2178 339.1438 0001479  49.0858 161.9075 15.08847502  1308","EPOCH":"2022-08-27T22:00:00.999936","ECCENTRICITY":"0.00014790","RA_OF_ASC_NODE":"339.1438","MEAN_MOTION":"15.08847502","GP_ID":"211137440","CLASSIFICATION_TYPE":"U","RCS_SIZE":"LARGE","OBJECT_TYPE":"PAYLOAD","APOAPSIS":"540.746","MEAN_MOTION_DOT":"-0.00030227","DECAY_DATE":null},{"EPOCH":"2022-08-27T22:00:00.999936","TLE_LINE2":"2 51754  53.2172 339.1324 0001582  61.3762 224.4651 15.08700089  1306","FILE":"3548882","EPHEMERIS_TYPE":"0","REV_AT_EPOCH":"130","NORAD_CAT_ID":"51754","ELEMENT_SET_NO":"999","LAUNCH_DATE":"2022-02-21","MEAN_ELEMENT_THEORY":"SGP4","SEMIMAJOR_AXIS":"6918.308","SITE":"AFETR","TIME_SYSTEM":"UTC","GP_ID":"211137660","CLASSIFICATION_TYPE":"U","RCS_SIZE":"LARGE","OBJECT_TYPE":"PAYLOAD","MEAN_MOTION_DOT":"0.00189659","APOAPSIS":"541.268","DECAY_DATE":null,"ECCENTRICITY":"0.00015820","RA_OF_ASC_NODE":"339.1324","MEAN_MOTION":"15.08700089","MEAN_MOTION_DDOT":"0.0000000000000","COUNTRY_CODE":"US","PERIOD":"95.446","OBJECT_ID":"2022-016AS","ARG_OF_PERICENTER":"61.3762","INCLINATION":"53.2172","REF_FRAME":"TEME","MEAN_ANOMALY":"224.4651","PERIAPSIS":"539.079","CENTER_NAME":"EARTH","BSTAR":"0.01166400000000","TLE_LINE1":"1 51754U 22016AS  22239.91667824  .00189659  00000-0  11664-1 0  9991","OBJECT_NAME":"STARLINK-3457"},{"TLE_LINE2":"2 51755  53.2175 339.1431 0001713  53.8737 216.9951 15.08864817  1302","EPOCH":"2022-08-27T22:00:00.999936","LAUNCH_DATE":"2022-02-21","ELEMENT_SET_NO":"999","NORAD_CAT_ID":"51755","FILE":"3548882","REV_AT_EPOCH":"130","EPHEMERIS_TYPE":"0","SEMIMAJOR_AXIS":"6917.805","SITE":"AFETR","TIME_SYSTEM":"UTC","MEAN_ELEMENT_THEORY":"SGP4","OBJECT_TYPE":"PAYLOAD","RCS_SIZE":"LARGE","GP_ID":"211136446","CLASSIFICATION_TYPE":"U","DECAY_DATE":null,"APOAPSIS":"540.855","MEAN_MOTION_DOT":"-0.00032302","RA_OF_ASC_NODE":"339.1431","ECCENTRICITY":"0.00017130","MEAN_MOTION":"15.08864817","PERIOD":"95.436","OBJECT_ID":"2022-016AT","ARG_OF_PERICENTER":"53.8737","MEAN_MOTION_DDOT":"0.0000000000000","COUNTRY_CODE":"US","REF_FRAME":"TEME","INCLINATION":"53.2175","MEAN_ANOMALY":"216.9951","PERIAPSIS":"538.485","CENTER_NAME":"EARTH","BSTAR":"-0.00201920000000","OBJECT_NAME":"STARLINK-3460","TLE_LINE1":"1 51755U 22016AT  22239.91667824 -.00032302  00000-0 -20192-2 0  9993"},{"EPOCH":"2022-08-27T22:00:00.999936","TLE_LINE2":"2 51756  53.2207 339.1353 0001675  50.4462  20.4892 15.08847079  1300","MEAN_ELEMENT_THEORY":"SGP4","TIME_SYSTEM":"UTC","SITE":"AFETR","SEMIMAJOR_AXIS":"6917.859","FILE":"3548882","REV_AT_EPOCH":"130","EPHEMERIS_TYPE":"0","NORAD_CAT_ID":"51756","ELEMENT_SET_NO":"999","LAUNCH_DATE":"2022-02-21","APOAPSIS":"540.882","MEAN_MOTION_DOT":"-0.00029147","DECAY_DATE":null,"GP_ID":"211136696","CLASSIFICATION_TYPE":"U","RCS_SIZE":"LARGE","OBJECT_TYPE":"PAYLOAD","MEAN_MOTION":"15.08847079","ECCENTRICITY":"0.00016750","RA_OF_ASC_NODE":"339.1353","MEAN_MOTION_DDOT":"0.0000000000000","COUNTRY_CODE":"US","PERIOD":"95.437","OBJECT_ID":"2022-016AU","ARG_OF_PERICENTER":"50.4462","MEAN_ANOMALY":"20.4892","PERIAPSIS":"538.565","INCLINATION":"53.2207","REF_FRAME":"TEME","CENTER_NAME":"EARTH","TLE_LINE1":"1 51756U 22016AU  22239.91667824 -.00029147  00000-0 -18203-2 0  9997","OBJECT_NAME":"STARLINK-3513","BSTAR":"-0.00182030000000"},{"MEAN_MOTION":"15.08865198","ECCENTRICITY":"0.00017250","RA_OF_ASC_NODE":"339.1329","APOAPSIS":"540.862","MEAN_MOTION_DOT":"-0.00057440","DECAY_DATE":null,"GP_ID":"211137934","CLASSIFICATION_TYPE":"U","OBJECT_TYPE":"PAYLOAD","RCS_SIZE":"LARGE","MEAN_ELEMENT_THEORY":"SGP4","SEMIMAJOR_AXIS":"6917.803","SITE":"AFETR","TIME_SYSTEM":"UTC","FILE":"3548882","EPHEMERIS_TYPE":"0","REV_AT_EPOCH":"130","NORAD_CAT_ID":"51757","ELEMENT_SET_NO":"999","LAUNCH_DATE":"2022-02-21","EPOCH":"2022-08-27T22:00:00.999936","TLE_LINE2":"2 51757  53.2203 339.1329 0001725  46.6458  44.3399 15.08865198  1307","TLE_LINE1":"1 51757U 22016AV  22239.91667824 -.00057440  00000-0 -36174-2 0  9992","OBJECT_NAME":"STARLINK-3459","BSTAR":"-0.00361740000000","CENTER_NAME":"EARTH","MEAN_ANOMALY":"44.3399","PERIAPSIS":"538.475","INCLINATION":"53.2203","REF_FRAME":"TEME","COUNTRY_CODE":"US","MEAN_MOTION_DDOT":"0.0000000000000","PERIOD":"95.436","ARG_OF_PERICENTER":"46.6458","OBJECT_ID":"2022-016AV"},{"MEAN_ELEMENT_THEORY":"SGP4","SEMIMAJOR_AXIS":"6917.806","SITE":"AFETR","TIME_SYSTEM":"UTC","FILE":"3548882","EPHEMERIS_TYPE":"0","REV_AT_EPOCH":"130","NORAD_CAT_ID":"51758","ELEMENT_SET_NO":"999","LAUNCH_DATE":"2022-02-21","EPOCH":"2022-08-27T22:00:00.999936","TLE_LINE2":"2 51758  53.2195 339.1277 0001545  55.3344  50.4630 15.08864300  1301","MEAN_MOTION":"15.08864300","ECCENTRICITY":"0.00015450","RA_OF_ASC_NODE":"339.1277","APOAPSIS":"540.740","MEAN_MOTION_DOT":"-0.00056385","DECAY_DATE":null,"CLASSIFICATION_TYPE":"U","GP_ID":"211138154","RCS_SIZE":"LARGE","OBJECT_TYPE":"PAYLOAD","MEAN_ANOMALY":"50.4630","PERIAPSIS":"538.602","INCLINATION":"53.2195","REF_FRAME":"TEME","COUNTRY_CODE":"US","MEAN_MOTION_DDOT":"0.0000000000000","PERIOD":"95.436","ARG_OF_PERICENTER":"55.3344","OBJECT_ID":"2022-016AW","TLE_LINE1":"1 51758U 22016AW  22239.91667824 -.00056385  00000-0 -35502-2 0  9994","OBJECT_NAME":"STARLINK-3458","BSTAR":"-0.00355020000000","CENTER_NAME":"EARTH"},{"PERIOD":"95.437","ARG_OF_PERICENTER":"70.4600","OBJECT_ID":"2022-016AX","COUNTRY_CODE":"US","MEAN_MOTION_DDOT":"0.0000000000000","REF_FRAME":"TEME","INCLINATION":"53.2201","MEAN_ANOMALY":"40.4952","PERIAPSIS":"538.768","CENTER_NAME":"EARTH","BSTAR":"-0.00170550000000","OBJECT_NAME":"STARLINK-3456","TLE_LINE1":"1 51759U 22016AX  22239.91667824 -.00027340  00000-0 -17055-2 0  9997","TLE_LINE2":"2 51759  53.2201 339.1321 0001342  70.4600  40.4952 15.08855910  1301","EPOCH":"2022-08-27T22:00:00.999936","LAUNCH_DATE":"2022-02-21","ELEMENT_SET_NO":"999","NORAD_CAT_ID":"51759","REV_AT_EPOCH":"130","FILE":"3548882","EPHEMERIS_TYPE":"0","TIME_SYSTEM":"UTC","SITE":"AFETR","SEMIMAJOR_AXIS":"6917.832","MEAN_ELEMENT_THEORY":"SGP4","OBJECT_TYPE":"PAYLOAD","RCS_SIZE":"LARGE","GP_ID":"211136940","CLASSIFICATION_TYPE":"U","DECAY_DATE":null,"APOAPSIS":"540.625","MEAN_MOTION_DOT":"-0.00027340","RA_OF_ASC_NODE":"339.1321","ECCENTRICITY":"0.00013420","MEAN_MOTION":"15.08855910"},{"RCS_SIZE":"LARGE","OBJECT_TYPE":"PAYLOAD","CLASSIFICATION_TYPE":"U","GP_ID":"211137190","DECAY_DATE":null,"APOAPSIS":"540.818","MEAN_MOTION_DOT":"-0.00005968","RA_OF_ASC_NODE":"9.1298","ECCENTRICITY":"0.00015660","MEAN_MOTION":"15.08843587","EPOCH":"2022-08-27T22:00:00.999936","TLE_LINE2":"2 51768  53.2181   9.1298 0001566  63.3626 242.6306 15.08843587  1308","ELEMENT_SET_NO":"999","LAUNCH_DATE":"2022-02-25","FILE":"3548882","REV_AT_EPOCH":"130","EPHEMERIS_TYPE":"0","NORAD_CAT_ID":"51768","TIME_SYSTEM":"UTC","SITE":"AFWTR","SEMIMAJOR_AXIS":"6917.869","MEAN_ELEMENT_THEORY":"SGP4","CENTER_NAME":"EARTH","BSTAR":"-0.00035711000000","TLE_LINE1":"1 51768U 22017A   22239.91667824 -.00005968  00000-0 -35711-3 0  9990","OBJECT_NAME":"STARLINK-3622","ARG_OF_PERICENTER":"63.3626","PERIOD":"95.437","OBJECT_ID":"2022-017A","MEAN_MOTION_DDOT":"0.0000000000000","COUNTRY_CODE":"US","REF_FRAME":"TEME","INCLINATION":"53.2181","PERIAPSIS":"538.651","MEAN_ANOMALY":"242.6306"}];
